FENGYUN 1C DEB          
1 37030U 99025EDN 17345.27134387  .00002040  00000-0  88026-3 0  9996
2 37030  99.7143 354.2687 0035747 356.2343   3.8559 14.25466647473420
